AL MUNTHER              
1 63240U 25052AG  26068.64540749  .00017933  00000+0  65015-3 0  9992
2 63240  97.4001 323.9152 0008027 130.7043 229.4895 15.28381521 54798
STARLINK-36423          
1 67448U 26008D   26068.43271001  .00025525  00000+0  93370-3 0  9998
2 67448  42.9989 206.6197 0001645 267.6574  92.4089 15.27585154  9538
